STARLINK-5132           
1 54007U 22125AV  26028.98578342  .00001295  00000+0  99417-4 0  9992
2 54007  53.2179  32.0065 0001352  81.9757 278.1389 15.08838107183471
STARLINK-5145           
1 54008U 22125AW  26028.98301854  .00000814  00000+0  69227-4 0  9997
2 54008  53.2199  22.0127 0001481  91.6491 268.4671 15.08843321183614
STARLINK-5099           
1 54009U 22125AX  26028.31970124  .00001011  00000+0  81577-4 0  9999
2 54009  53.2183  34.9544 0001292  84.2581 275.8559 15.08835864183374
STARLINK-5127           
1 54010U 22125AY  26028.97565044  .00002110  00000+0  15058-3 0  9995
2 54010  53.2181  21.9781 0001448  92.2594 267.8564 15.08844966183616
STARLINK-5124           
1 54011U 22125AZ  26028.96468728  .00001989  00000+0  14301-3 0  9999
2 54011  53.2188  22.6048 0001400  80.9393 279.1758 15.08836982183606
STARLINK-5126           
1 54012U 22125BA  26028.93889850  .00001156  00000+0  90690-4 0  9992
2 54012  53.2188  22.4425 0001214  86.2746 273.8385 15.08839670183602
STARLINK-5098           
1 54013U 22125BB  26028.68130092  .00006498  00000+0  42596-3 0  9997
2 54013  53.2189  23.6779 0001374  94.4119 265.7031 15.08839970183567
STARLINK-5055           
1 54015U 22125BD  26028.28017821  .00000429  00000+0  45070-4 0  9998
2 54015  53.2187  25.4366 0001238  87.5115 272.6019 15.08835472183507
STARLINK-5195           
1 54051U 22136A   26028.90030813 -.00008290  00000+0 -50394-3 0  9995
2 54051  53.2175 162.9893 0001409  58.6342 301.4788 15.08798516180831
STARLINK-5189           
1 54052U 22136B   26028.52118259  .00002009  00000+0  14421-3 0  9996
2 54052  53.2189 124.2485 0001818  70.7849 289.3340 15.08856772181340
STARLINK-5176           
1 54053U 22136C   26028.63164591  .00000229  00000+0  32500-4 0  9990
2 54053  53.2148 164.1538 0001257  89.8390 270.2746 15.08840014180796
STARLINK-5163           
1 54054U 22136D   26028.69051885  .00000819  00000+0  69555-4 0  9993
2 54054  53.2162 163.8090 0001479  75.6982 284.4175 15.08844365180806
STARLINK-5158           
1 54055U 22136E   26028.69419314  .00000142  00000+0  26975-4 0  9997
2 54055  53.2172 163.8348 0001196 125.1587 234.9517 15.08842198180804
STARLINK-5226           
1 54056U 22136F   26028.63893301  .00000106  00000+0  24747-4 0  9999
2 54056  53.2117 163.5021 0001617  95.7149 264.4028 15.08839394180802
STARLINK-5167           
1 54058U 22136H   26028.74570754  .00000247  00000+0  33627-4 0  9990
2 54058  53.2180 163.4447 0001513  78.8686 281.2477 15.08837885180817
STARLINK-5173           
1 54059U 22136J   26028.74939402  .00000357  00000+0  40515-4 0  9996
2 54059  53.2174 163.4683 0001508  86.3048 273.8117 15.08835616180811
