[{"OBJECT_NAME":"STARLINK-5132","OBJECT_ID":"2022-125AV","EPOCH":"2026-01-28T23:39:31.687488","MEAN_MOTION":15.08838107,"ECCENTRICITY":0.00013529,"INCLINATION":53.2179,"RA_OF_ASC_NODE":32.0065,"ARG_OF_PERICENTER":81.9757,"MEAN_ANOMALY":278.1389,"EPHEMERIS_TYPE":0,"CLASSIFICATION_TYPE":"U","NORAD_CAT_ID":54007,"ELEMENT_SET_NO":999,"REV_AT_EPOCH":18347,"BSTAR":9.9416896e-5,"MEAN_MOTION_DOT":1.295e-5,"MEAN_MOTION_DDOT":0},{"OBJECT_NAME":"STARLINK-5145","OBJECT_ID":"2022-125AW","EPOCH":"2026-01-28T23:35:32.801856","MEAN_MOTION":15.08843321,"ECCENTRICITY":0.00014811,"INCLINATION":53.2199,"RA_OF_ASC_NODE":22.0127,"ARG_OF_PERICENTER":91.6491,"MEAN_ANOMALY":268.4671,"EPHEMERIS_TYPE":0,"CLASSIFICATION_TYPE":"U","NORAD_CAT_ID":54008,"ELEMENT_SET_NO":999,"REV_AT_EPOCH":18361,"BSTAR":6.9226854e-5,"MEAN_MOTION_DOT":8.14e-6,"MEAN_MOTION_DDOT":0},{"OBJECT_NAME":"STARLINK-5099","OBJECT_ID":"2022-125AX","EPOCH":"2026-01-28T07:40:22.187136","MEAN_MOTION":15.08835864,"ECCENTRICITY":0.00012926,"INCLINATION":53.2183,"RA_OF_ASC_NODE":34.9544,"ARG_OF_PERICENTER":84.2581,"MEAN_ANOMALY":275.8559,"EPHEMERIS_TYPE":0,"CLASSIFICATION_TYPE":"U","NORAD_CAT_ID":54009,"ELEMENT_SET_NO":999,"REV_AT_EPOCH":18337,"BSTAR":8.1577212e-5,"MEAN_MOTION_DOT":1.011e-5,"MEAN_MOTION_DDOT":0},{"OBJECT_NAME":"STARLINK-5127","OBJECT_ID":"2022-125AY","EPOCH":"2026-01-28T23:24:56.198016","MEAN_MOTION":15.08844966,"ECCENTRICITY":0.00014482,"INCLINATION":53.2181,"RA_OF_ASC_NODE":21.9781,"ARG_OF_PERICENTER":92.2594,"MEAN_ANOMALY":267.8564,"EPHEMERIS_TYPE":0,"CLASSIFICATION_TYPE":"U","NORAD_CAT_ID":54010,"ELEMENT_SET_NO":999,"REV_AT_EPOCH":18361,"BSTAR":0.00015057811,"MEAN_MOTION_DOT":2.11e-5,"MEAN_MOTION_DDOT":0},{"OBJECT_NAME":"STARLINK-5124","OBJECT_ID":"2022-125AZ","EPOCH":"2026-01-28T23:09:08.980992","MEAN_MOTION":15.08836982,"ECCENTRICITY":0.00014001,"INCLINATION":53.2188,"RA_OF_ASC_NODE":22.6048,"ARG_OF_PERICENTER":80.9393,"MEAN_ANOMALY":279.1758,"EPHEMERIS_TYPE":0,"CLASSIFICATION_TYPE":"U","NORAD_CAT_ID":54011,"ELEMENT_SET_NO":999,"REV_AT_EPOCH":18360,"BSTAR":0.00014300686,"MEAN_MOTION_DOT":1.989e-5,"MEAN_MOTION_DDOT":0},{"OBJECT_NAME":"STARLINK-5126","OBJECT_ID":"2022-125BA","EPOCH":"2026-01-28T22:32:00.830400","MEAN_MOTION":15.0883967,"ECCENTRICITY":0.00012149,"INCLINATION":53.2188,"RA_OF_ASC_NODE":22.4425,"ARG_OF_PERICENTER":86.2746,"MEAN_ANOMALY":273.8385,"EPHEMERIS_TYPE":0,"CLASSIFICATION_TYPE":"U","NORAD_CAT_ID":54012,"ELEMENT_SET_NO":999,"REV_AT_EPOCH":18360,"BSTAR":9.0690395e-5,"MEAN_MOTION_DOT":1.156e-5,"MEAN_MOTION_DDOT":0},{"OBJECT_NAME":"STARLINK-5098","OBJECT_ID":"2022-125BB","EPOCH":"2026-01-28T16:21:04.399488","MEAN_MOTION":15.0883997,"ECCENTRICITY":0.00013744,"INCLINATION":53.2189,"RA_OF_ASC_NODE":23.6779,"ARG_OF_PERICENTER":94.4119,"MEAN_ANOMALY":265.7031,"EPHEMERIS_TYPE":0,"CLASSIFICATION_TYPE":"U","NORAD_CAT_ID":54013,"ELEMENT_SET_NO":999,"REV_AT_EPOCH":18356,"BSTAR":0.00042595731,"MEAN_MOTION_DOT":6.498e-5,"MEAN_MOTION_DDOT":0},{"OBJECT_NAME":"STARLINK-5055","OBJECT_ID":"2022-125BD","EPOCH":"2026-01-28T06:43:27.397344","MEAN_MOTION":15.08835472,"ECCENTRICITY":0.00012386,"INCLINATION":53.2187,"RA_OF_ASC_NODE":25.4366,"ARG_OF_PERICENTER":87.5115,"MEAN_ANOMALY":272.6019,"EPHEMERIS_TYPE":0,"CLASSIFICATION_TYPE":"U","NORAD_CAT_ID":54015,"ELEMENT_SET_NO":999,"REV_AT_EPOCH":18350,"BSTAR":4.5069751e-5,"MEAN_MOTION_DOT":4.29e-6,"MEAN_MOTION_DDOT":0},{"OBJECT_NAME":"STARLINK-5195","OBJECT_ID":"2022-136A","EPOCH":"2026-01-28T21:36:26.622432","MEAN_MOTION":15.08798516,"ECCENTRICITY":0.00014092,"INCLINATION":53.2175,"RA_OF_ASC_NODE":162.9893,"ARG_OF_PERICENTER":58.6342,"MEAN_ANOMALY":301.4788,"EPHEMERIS_TYPE":0,"CLASSIFICATION_TYPE":"U","NORAD_CAT_ID":54051,"ELEMENT_SET_NO":999,"REV_AT_EPOCH":18083,"BSTAR":-0.00050393723,"MEAN_MOTION_DOT":-8.29e-5,"MEAN_MOTION_DDOT":0},{"OBJECT_NAME":"STARLINK-5189","OBJECT_ID":"2022-136B","EPOCH":"2026-01-28T12:30:30.175776","MEAN_MOTION":15.08856772,"ECCENTRICITY":0.00018183,"INCLINATION":53.2189,"RA_OF_ASC_NODE":124.2485,"ARG_OF_PERICENTER":70.7849,"MEAN_ANOMALY":289.334,"EPHEMERIS_TYPE":0,"CLASSIFICATION_TYPE":"U","NORAD_CAT_ID":54052,"ELEMENT_SET_NO":999,"REV_AT_EPOCH":18134,"BSTAR":0.00014420903,"MEAN_MOTION_DOT":2.009e-5,"MEAN_MOTION_DDOT":0},{"OBJECT_NAME":"STARLINK-5176","OBJECT_ID":"2022-136C","EPOCH":"2026-01-28T15:09:34.206624","MEAN_MOTION":15.08840014,"ECCENTRICITY":0.00012571,"INCLINATION":53.2148,"RA_OF_ASC_NODE":164.1538,"ARG_OF_PERICENTER":89.839,"MEAN_ANOMALY":270.2746,"EPHEMERIS_TYPE":0,"CLASSIFICATION_TYPE":"U","NORAD_CAT_ID":54053,"ELEMENT_SET_NO":999,"REV_AT_EPOCH":18079,"BSTAR":3.2500448e-5,"MEAN_MOTION_DOT":2.29e-6,"MEAN_MOTION_DDOT":0},{"OBJECT_NAME":"STARLINK-5163","OBJECT_ID":"2022-136D","EPOCH":"2026-01-28T16:34:20.828640","MEAN_MOTION":15.08844365,"ECCENTRICITY":0.00014797,"INCLINATION":53.2162,"RA_OF_ASC_NODE":163.809,"ARG_OF_PERICENTER":75.6982,"MEAN_ANOMALY":284.4175,"EPHEMERIS_TYPE":0,"CLASSIFICATION_TYPE":"U","NORAD_CAT_ID":54054,"ELEMENT_SET_NO":999,"REV_AT_EPOCH":18080,"BSTAR":6.9554656e-5,"MEAN_MOTION_DOT":8.19e-6,"MEAN_MOTION_DDOT":0},{"OBJECT_NAME":"STARLINK-5158","OBJECT_ID":"2022-136E","EPOCH":"2026-01-28T16:39:38.287296","MEAN_MOTION":15.08842198,"ECCENTRICITY":0.00011969,"INCLINATION":53.2172,"RA_OF_ASC_NODE":163.8348,"ARG_OF_PERICENTER":125.1587,"MEAN_ANOMALY":234.9517,"EPHEMERIS_TYPE":0,"CLASSIFICATION_TYPE":"U","NORAD_CAT_ID":54055,"ELEMENT_SET_NO":999,"REV_AT_EPOCH":18080,"BSTAR":2.6974882e-5,"MEAN_MOTION_DOT":1.42e-6,"MEAN_MOTION_DDOT":0},{"OBJECT_NAME":"STARLINK-5226","OBJECT_ID":"2022-136F","EPOCH":"2026-01-28T15:20:03.812064","MEAN_MOTION":15.08839394,"ECCENTRICITY":0.00016172,"INCLINATION":53.2117,"RA_OF_ASC_NODE":163.5021,"ARG_OF_PERICENTER":95.7149,"MEAN_ANOMALY":264.4028,"EPHEMERIS_TYPE":0,"CLASSIFICATION_TYPE":"U","NORAD_CAT_ID":54056,"ELEMENT_SET_NO":999,"REV_AT_EPOCH":18080,"BSTAR":2.4747396e-5,"MEAN_MOTION_DOT":1.06e-6,"MEAN_MOTION_DDOT":0},{"OBJECT_NAME":"STARLINK-5167","OBJECT_ID":"2022-136H","EPOCH":"2026-01-28T17:53:49.131456","MEAN_MOTION":15.08837885,"ECCENTRICITY":0.0001513,"INCLINATION":53.218,"RA_OF_ASC_NODE":163.4447,"ARG_OF_PERICENTER":78.8686,"MEAN_ANOMALY":281.2477,"EPHEMERIS_TYPE":0,"CLASSIFICATION_TYPE":"U","NORAD_CAT_ID":54058,"ELEMENT_SET_NO":999,"REV_AT_EPOCH":18081,"BSTAR":3.3627412e-5,"MEAN_MOTION_DOT":2.47e-6,"MEAN_MOTION_DDOT":0},{"OBJECT_NAME":"STARLINK-5173","OBJECT_ID":"2022-136J","EPOCH":"2026-01-28T17:59:07.643328","MEAN_MOTION":15.08835616,"ECCENTRICITY":0.00015084,"INCLINATION":53.2174,"RA_OF_ASC_NODE":163.4683,"ARG_OF_PERICENTER":86.3048,"MEAN_ANOMALY":273.8117,"EPHEMERIS_TYPE":0,"CLASSIFICATION_TYPE":"U","NORAD_CAT_ID":54059,"ELEMENT_SET_NO":999,"REV_AT_EPOCH":18081,"BSTAR":4.0514995e-5,"MEAN_MOTION_DOT":3.57e-6,"MEAN_MOTION_DDOT":0}]
